{"type": "FeatureCollection", "features": [ {"type": "Feature", "properties": {"norad_id": 43010, "name": "FENGYUN 3D", "group": "weather", "lat": -74.1725937937143, "lon": -20.967588207419805, "alt_km": 833.5588718941572, "timestamp": "2025-12-04T21:36:15.516671+00:00", "meta": {"OBJECT_NAME": "FENGYUN 3D", "OBJECT_ID": "2017-072A", "EPOCH": "2025-12-04T15:12:01.058112", "MEAN_MOTION": 14.19680247, "ECCENTRICITY": 6.48e-05, "INCLINATION": 98.9882, "RA_OF_ASC_NODE": 304.8227, "ARG_OF_PERICENTER": 213.4128, "MEAN_ANOMALY": 146.7007, "EPHEMERIS_TYPE": 0, "CLASSIFICATION_TYPE": "U", "NORAD_CAT_ID": 43010, "ELEMENT_SET_NO": 999, "REV_AT_EPOCH": 41738, "BSTAR": 0.00012662303, "MEAN_MOTION_DOT": 2.22e-06, "MEAN_MOTION_DDOT": 0}, "tle": {"line1": "1 43010U 17072A   25338.63334558  .00000222  00000+0  12662-3 0  9998", "line2": "2 43010  98.9882 304.8227 0000648 213.4128 146.7007 14.19680247417389"}}, "geometry": {"type": "Point", "coordinates": [-20.967588207419805, -74.1725937937143]}}, {"type": "Feature", "properties": {"norad_id": 43013, "name": "NOAA 20 (JPSS-1)", "group": "weather", "lat": 76.74884863093078, "lon": -125.61161240909676, "alt_km": 818.2799533325733, "timestamp": "2025-12-04T21:36:15.516691+00:00", "meta": {"OBJECT_NAME": "NOAA 20 (JPSS-1)", "OBJECT_ID": "2017-073A", "EPOCH": "2025-12-04T14:27:43.856352", "MEAN_MOTION": 14.19522433, "ECCENTRICITY": 0.00020807, "INCLINATION": 98.7587, "RA_OF_ASC_NODE": 274.9888, "ARG_OF_PERICENTER": 98.7505, "MEAN_ANOMALY": 261.3907, "EPHEMERIS_TYPE": 0, "CLASSIFICATION_TYPE": "U", "NORAD_CAT_ID": 43013, "ELEMENT_SET_NO": 999, "REV_AT_EPOCH": 41686, "BSTAR": 0.00011134814, "MEAN_MOTION_DOT": 1.91e-06, "MEAN_MOTION_DDOT": 0}, "tle": {"line1": "1 43013U 17073A   25338.60259093  .00000191  00000+0  11135-3 0  9998", "line2": "2 43013  98.7587 274.9888 0002080  98.7505 261.3907 14.19522433416864"}}, "geometry": {"type": "Point", "coordinates": [-125.61161240909676, 76.74884863093078]}}, {"type": "Feature", "properties": {"norad_id": 43226, "name": "GOES 17", "group": "weather", "lat": -0.28552864650789755, "lon": -51.463753214002736, "alt_km": 35774.583250790194, "timestamp": "2025-12-04T21:36:15.516703+00:00", "meta": {"OBJECT_NAME": "GOES 17", "OBJECT_ID": "2018-022A", "EPOCH": "2025-12-04T13:17:59.563104", "MEAN_MOTION": 1.0027116, "ECCENTRICITY": 0.00034747, "INCLINATION": 0.4372, "RA_OF_ASC_NODE": 89.2939, "ARG_OF_PERICENTER": 182.3294, "MEAN_ANOMALY": 272.0015, "EPHEMERIS_TYPE": 0, "CLASSIFICATION_TYPE": "U", "NORAD_CAT_ID": 43226, "ELEMENT_SET_NO": 999, "REV_AT_EPOCH": 2847, "BSTAR": 0, "MEAN_MOTION_DOT": -1.68e-06, "MEAN_MOTION_DDOT": 0}, "tle": {"line1": "1 43226U 18022A   25338.55416161 -.00000168  00000+0  00000+0 0  9994", "line2": "2 43226   0.4372  89.2939 0003474 182.3294 272.0015  1.00271160 28478"}}, "geometry": {"type": "Point", "coordinates": [-51.463753214002736, -0.28552864650789755]}}, {"type": "Feature", "properties": {"norad_id": 43491, "name": "FENGYUN 2H", "group": "weather", "lat": 1.4989468517617142, "lon": 117.32154419367203, "alt_km": 35793.662754125566, "timestamp": "2025-12-04T21:36:15.516717+00:00", "meta": {"OBJECT_NAME": "FENGYUN 2H", "OBJECT_ID": "2018-050A", "EPOCH": "2025-12-04T14:06:17.436384", "MEAN_MOTION": 1.00271318, "ECCENTRICITY": 0.00029353, "INCLINATION": 2.5283, "RA_OF_ASC_NODE": 81.4195, "ARG_OF_PERICENTER": 163.7063, "MEAN_ANOMALY": 119.4653, "EPHEMERIS_TYPE": 0, "CLASSIFICATION_TYPE": "U", "NORAD_CAT_ID": 43491, "ELEMENT_SET_NO": 999, "REV_AT_EPOCH": 2748, "BSTAR": 0, "MEAN_MOTION_DOT": -1.17e-06, "MEAN_MOTION_DDOT": 0}, "tle": {"line1": "1 43491U 18050A   25338.58770181 -.00000117  00000+0  00000+0 0  9991", "line2": "2 43491   2.5283  81.4195 0002935 163.7063 119.4653  1.00271318 27489"}}, "geometry": {"type": "Point", "coordinates": [117.32154419367203, 1.4989468517617142]}}, {"type": "Feature", "properties": {"norad_id": 43689, "name": "METOP-C", "group": "weather", "lat": 14.34740068263216, "lon": -140.96756630358928, "alt_km": 821.5504541970176, "timestamp": "2025-12-04T21:36:15.516728+00:00", "meta": {"OBJECT_NAME": "METOP-C", "OBJECT_ID": "2018-087A", "EPOCH": "2025-12-04T15:45:39.991968", "MEAN_MOTION": 14.21507247, "ECCENTRICITY": 0.00016602, "INCLINATION": 98.6941, "RA_OF_ASC_NODE": 36.5497, "ARG_OF_PERICENTER": 55.7257, "MEAN_ANOMALY": 304.4077, "EPHEMERIS_TYPE": 0, "CLASSIFICATION_TYPE": "U", "NORAD_CAT_ID": 43689, "ELEMENT_SET_NO": 999, "REV_AT_EPOCH": 36719, "BSTAR": 0.00015567804, "MEAN_MOTION_DOT": 2.97e-06, "MEAN_MOTION_DDOT": 0}, "tle": {"line1": "1 43689U 18087A   25338.65671287  .00000297  00000+0  15568-3 0  9992", "line2": "2 43689  98.6941  36.5497 0001660  55.7257 304.4077 14.21507247367191"}}, "geometry": {"type": "Point", "coordinates": [-140.96756630358928, 14.34740068263216]}}, {"type": "Feature", "properties": {"norad_id": 43823, "name": "GEO-KOMPSAT-2A", "group": "weather", "lat": 0.03658024365077668, "lon": 166.26008389193305, "alt_km": 35785.480239759316, "timestamp": "2025-12-04T21:36:15.516740+00:00", "meta": {"OBJECT_NAME": "GEO-KOMPSAT-2A", "OBJECT_ID": "2018-100A", "EPOCH": "2025-12-04T12:37:25.948128", "MEAN_MOTION": 1.00269299, "ECCENTRICITY": 5.06e-05, "INCLINATION": 0.0604, "RA_OF_ASC_NODE": 120.8379, "ARG_OF_PERICENTER": 95.9371, "MEAN_ANOMALY": 174.4371, "EPHEMERIS_TYPE": 0, "CLASSIFICATION_TYPE": "U", "NORAD_CAT_ID": 43823, "ELEMENT_SET_NO": 999, "REV_AT_EPOCH": 2567, "BSTAR": 0, "MEAN_MOTION_DOT": -3.29e-06, "MEAN_MOTION_DDOT": 0}, "tle": {"line1": "1 43823U 18100A   25338.52599477 -.00000329  00000+0  00000+0 0  9992", "line2": "2 43823   0.0604 120.8379 0000506  95.9371 174.4371  1.00269299 25672"}}, "geometry": {"type": "Point", "coordinates": [166.26008389193305, 0.03658024365077668]}}, {"type": "Feature", "properties": {"norad_id": 44387, "name": "METEOR-M2 2", "group": "weather", "lat": 18.917579486004897, "lon": 141.61056400436112, "alt_km": 810.381551677564, "timestamp": "2025-12-04T21:36:15.516752+00:00", "meta": {"OBJECT_NAME": "METEOR-M2 2", "OBJECT_ID": "2019-038A", "EPOCH": "2025-12-04T15:47:38.711616", "MEAN_MOTION": 14.24286215, "ECCENTRICITY": 9.455e-05, "INCLINATION": 98.8964, "RA_OF_ASC_NODE": 318.2884, "ARG_OF_PERICENTER": 163.992, "MEAN_ANOMALY": 196.1288, "EPHEMERIS_TYPE": 0, "CLASSIFICATION_TYPE": "U", "NORAD_CAT_ID": 44387, "ELEMENT_SET_NO": 999, "REV_AT_EPOCH": 33360, "BSTAR": 0.00016104687, "MEAN_MOTION_DOT": 3.26e-06, "MEAN_MOTION_DDOT": 0}, "tle": {"line1": "1 44387U 19038A   25338.65808694  .00000326  00000+0  16105-3 0  9990", "line2": "2 44387  98.8964 318.2884 0000945 163.9920 196.1288 14.24286215333609"}}, "geometry": {"type": "Point", "coordinates": [141.61056400436112, 18.917579486004897]}}, {"type": "Feature", "properties": {"norad_id": 47719, "name": "ARKTIKA-M 1", "group": "weather", "lat": 60.92659559175595, "lon": -160.2937000802295, "alt_km": 36616.0535528324, "timestamp": "2025-12-04T21:36:15.516765+00:00", "meta": {"OBJECT_NAME": "ARKTIKA-M 1", "OBJECT_ID": "2021-016A", "EPOCH": "2025-12-01T02:41:41.634816", "MEAN_MOTION": 2.00613156, "ECCENTRICITY": 0.71974708, "INCLINATION": 63.1756, "RA_OF_ASC_NODE": 85.6045, "ARG_OF_PERICENTER": 269.084, "MEAN_ANOMALY": 15.7076, "EPHEMERIS_TYPE": 0, "CLASSIFICATION_TYPE": "U", "NORAD_CAT_ID": 47719, "ELEMENT_SET_NO": 999, "REV_AT_EPOCH": 3481, "BSTAR": 0, "MEAN_MOTION_DOT": -1.2e-07, "MEAN_MOTION_DDOT": 0}, "tle": {"line1": "1 47719U 21016A   25335.11228744 -.00000012  00000+0  00000+0 0  9997", "line2": "2 47719  63.1756  85.6045 7197470 269.0840  15.7076  2.00613156 34816"}}, "geometry": {"type": "Point", "coordinates": [-160.2937000802295, 60.92659559175595]}}, {"type": "Feature", "properties": {"norad_id": 49008, "name": "FENGYUN 3E", "group": "weather", "lat": -63.10078413940108, "lon": 141.84630723375167, "alt_km": 832.7770700363108, "timestamp": "2025-12-04T21:36:15.516778+00:00", "meta": {"OBJECT_NAME": "FENGYUN 3E", "OBJECT_ID": "2021-062A", "EPOCH": "2025-12-04T15:22:58.395360", "MEAN_MOTION": 14.19878335, "ECCENTRICITY": 7.056e-05, "INCLINATION": 98.7476, "RA_OF_ASC_NODE": 339.2582, "ARG_OF_PERICENTER": 318.2715, "MEAN_ANOMALY": 41.8408, "EPHEMERIS_TYPE": 0, "CLASSIFICATION_TYPE": "U", "NORAD_CAT_ID": 49008, "ELEMENT_SET_NO": 999, "REV_AT_EPOCH": 22897, "BSTAR": 4.9356575e-05, "MEAN_MOTION_DOT": 6.1e-07, "MEAN_MOTION_DDOT": 0}, "tle": {"line1": "1 49008U 21062A   25338.64095365  .00000061  00000+0  49357-4 0  9999", "line2": "2 49008  98.7476 339.2582 0000705 318.2715  41.8408 14.19878335228977"}}, "geometry": {"type": "Point", "coordinates": [141.84630723375167, -63.10078413940108]}}, {"type": "Feature", "properties": {"norad_id": 51850, "name": "GOES 18", "group": "weather", "lat": 0.014679193905945446, "lon": -98.9980155214856, "alt_km": 35783.35589048245, "timestamp": "2025-12-04T21:36:15.516790+00:00", "meta": {"OBJECT_NAME": "GOES 18", "OBJECT_ID": "2022-021A", "EPOCH": "2025-12-04T13:54:38.820672", "MEAN_MOTION": 1.00270877, "ECCENTRICITY": 8.066e-05, "INCLINATION": 0.0021, "RA_OF_ASC_NODE": 110.208, "ARG_OF_PERICENTER": 180.9876, "MEAN_ANOMALY": 214.1126, "EPHEMERIS_TYPE": 0, "CLASSIFICATION_TYPE": "U", "NORAD_CAT_ID": 51850, "ELEMENT_SET_NO": 999, "REV_AT_EPOCH": 464, "BSTAR": 0, "MEAN_MOTION_DOT": 1.11e-06, "MEAN_MOTION_DDOT": 0}, "tle": {"line1": "1 51850U 22021A   25338.57961598  .00000111  00000+0  00000+0 0  9998", "line2": "2 51850   0.0021 110.2080 0000806 180.9876 214.1126  1.00270877  4642"}}, "geometry": {"type": "Point", "coordinates": [-98.9980155214856, 0.014679193905945446]}}]}